NORAD_CAT_ID,OBJECT_NAME,OBJECT_TYPE,EPOCH,MEAN_MOTION,ECCENTRICITY,INCLINATION,RA_OF_ASC_NODE,ARG_OF_PERICENTER,MEAN_ANOMALY,BSTAR,MEAN_MOTION_DOT,MEAN_MOTION_DDOT,TLE_LINE0,TLE_LINE1,TLE_LINE2,SEMIMAJOR_AXIS,PERIOD,APOGEE,PERIGEE,DECAYED
53036.0,STARLINK-4155,PAYLOAD,2023-05-27 18:18:09,15.08843121,8.94e-05,53.217,319.2809,90.8904,269.2191,8.4321e-05,1.055e-05,0.0,0 STARLINK-4155,1 53036U 22076BC  23147.76260622  .00001055  00000-0  84321-4 0  9995,2 53036  53.2170 319.2809 0000894  90.8904 269.2191 15.08843121 49602,6917.871,95.437,540.354,539.117,0.0
53036.0,STARLINK-4155,PAYLOAD,2023-05-28 03:50:28,15.08843989,9.03e-05,53.2172,317.4952,94.4395,265.6701,0.0001343,1.851e-05,0.0,0 STARLINK-4155,1 53036U 22076BC  23148.16004632  .00001851  00000-0  13430-3 0  9993,2 53036  53.2172 317.4952 0000903  94.4395 265.6701 15.08843989 49663,6917.868,95.437,540.358,539.109,0.0
53036.0,STARLINK-4155,PAYLOAD,2023-05-28 11:47:23,15.08849554,8.35e-05,53.2162,316.0113,94.755,265.3537,-0.00014356,-2.572e-05,0.0,0 STARLINK-4155,1 53036U 22076BC  23148.49124513 -.00002572  00000-0 -14356-3 0  9991,2 53036  53.2162 316.0113 0000835  94.7550 265.3537 15.08849554 50172,6917.851,95.437,540.294,539.139,0.0
53036.0,STARLINK-4155,PAYLOAD,2023-05-28 16:33:33,15.08845934,9.23e-05,53.2162,315.1191,94.5344,265.5753,0.00016008,2.261e-05,0.0,0 STARLINK-4155,1 53036U 22076BC  23148.68996638  .00002261  00000-0  16008-3 0  9996,2 53036  53.2162 315.1191 0000923  94.5344 265.5753 15.08845934 49746,6917.862,95.437,540.366,539.089,0.0
53036.0,STARLINK-4155,PAYLOAD,2023-05-29 10:02:47,15.08839162,9.77e-05,53.2159,311.8486,94.0462,266.0642,8.0824e-05,9.99e-06,0.0,0 STARLINK-4155,1 53036U 22076BC  23149.41860905  .00000999  00000-0  80824-4 0  9999,2 53036  53.2159 311.8486 0000977  94.0462 266.0642 15.08839162 50311,6917.883,95.438,540.424,539.072,0.0
53036.0,STARLINK-4155,PAYLOAD,2023-05-29 14:48:56,15.08844746,8.99e-05,53.2161,310.9562,94.7797,265.3297,-0.00024031,-4.111e-05,0.0,0 STARLINK-4155,1 53036U 22076BC  23149.61732583 -.00004111  00000-0 -24031-3 0  9990,2 53036  53.2161 310.9562 0000899  94.7797 265.3297 15.08844746 49882,6917.866,95.437,540.353,539.109,0.0
53036.0,STARLINK-4155,PAYLOAD,2023-05-29 17:59:43,15.08840017,8.77e-05,53.217,310.3618,91.7473,268.362,8.8404e-05,1.12e-05,0.0,0 STARLINK-4155,1 53036U 22076BC  23149.74981017  .00001120  00000-0  88404-4 0  9992,2 53036  53.2170 310.3618 0000877  91.7473 268.3620 15.08840017 49905,6917.88,95.438,540.352,539.139,0.0
53036.0,STARLINK-4155,PAYLOAD,2023-05-30 09:53:35,15.08835415,8.06e-05,53.2173,307.3881,95.1388,264.9696,5.6871e-05,6.17e-06,0.0,0 STARLINK-4155,1 53036U 22076BC  23150.41221370  .00000617  00000-0  56871-4 0  9990,2 53036  53.2173 307.3881 0000806  95.1388 264.9696 15.08835415 50465,6917.894,95.438,540.317,539.202,0.0
53036.0,STARLINK-4155,PAYLOAD,2023-05-30 13:04:21,15.08832721,7.89e-05,53.217,306.7932,93.6955,266.4127,3.3771e-05,2.5e-06,0.0,0 STARLINK-4155,1 53036U 22076BC  23150.54469629  .00000250  00000-0  33771-4 0  9992,2 53036  53.2170 306.7932 0000789  93.6955 266.4127 15.08832721 50020,6917.903,95.438,540.313,539.222,0.0
53036.0,STARLINK-4155,PAYLOAD,2023-05-30 19:25:54,15.0883524,0.0001102,53.217,305.6039,100.1334,259.9783,7.3872e-05,8.88e-06,0.0,0 STARLINK-4155,1 53036U 22076BC  23150.80965407  .00000888  00000-0  73872-4 0  9999,2 53036  53.2170 305.6039 0001102 100.1334 259.9783 15.08835240 50069,6917.895,95.438,540.522,538.998,0.0
53036.0,STARLINK-4155,PAYLOAD,2023-05-31 14:30:31,15.08842009,8.3e-05,53.2173,302.0354,88.2929,271.8158,0.00013214,1.816e-05,0.0,0 STARLINK-4155,1 53036U 22076BC  23151.60452854  .00001816  00000-0  13214-3 0  9990,2 53036  53.2173 302.0354 0000830  88.2929 271.8158 15.08842009 50189,6917.874,95.437,540.313,539.165,0.0
53036.0,STARLINK-4155,PAYLOAD,2023-05-31 17:41:17,15.08848678,8.51e-05,53.2174,301.4403,86.5465,273.5625,0.0001442,2.008e-05,0.0,0 STARLINK-4155,1 53036U 22076BC  23151.73700415  .00002008  00000-0  14420-3 0  9997,2 53036  53.2174 301.4403 0000851  86.5465 273.5625 15.08848678 50666,6917.854,95.437,540.308,539.13,0.0
53036.0,STARLINK-4155,PAYLOAD,2023-06-01 03:13:36,15.08844088,8.19e-05,53.2175,299.6558,88.0243,272.0843,9.3506e-05,1.201e-05,0.0,0 STARLINK-4155,1 53036U 22076BC  23152.13444724  .00001201  00000-0  93506-4 0  9997,2 53036  53.2175 299.6558 0000819  88.0243 272.0843 15.08844088 50725,6917.868,95.437,540.299,539.166,0.0
53036.0,STARLINK-4155,PAYLOAD,2023-06-02 12:36:43,15.08834152,9.75e-05,53.2175,293.4109,91.3355,268.7749,-2.9528e-05,-7.58e-06,0.0,0 STARLINK-4155,1 53036U 22076BC  23153.52549983 -.00000758  00000-0 -29528-4 0  9995,2 53036  53.2175 293.4109 0000975  91.3355 268.7749 15.08834152 50934,6917.898,95.438,540.438,539.089,0.0
53036.0,STARLINK-4155,PAYLOAD,2023-06-02 14:12:06,15.08831611,7.6e-05,53.2178,293.1129,96.2273,263.8806,1.2517e-05,-8.8e-07,0.0,0 STARLINK-4155,1 53036U 22076BC  23153.59173973 -.00000088  00000-0  12517-4 0  9999,2 53036  53.2178 293.1129 0000760  96.2273 263.8806 15.08831611 50488,6917.906,95.438,540.297,539.245,0.0
53036.0,STARLINK-4155,PAYLOAD,2023-06-02 15:47:29,15.08837395,9.65e-05,53.2176,292.8148,97.4113,262.6989,-7.5987e-05,-1.497e-05,0.0,0 STARLINK-4155,1 53036U 22076BC  23153.65797880 -.00001497  00000-0 -75987-4 0  9991,2 53036  53.2176 292.8148 0000965  97.4113 262.6989 15.08837395 50491,6917.888,95.438,540.421,539.086,0.0
53036.0,STARLINK-4155,PAYLOAD,2023-06-03 14:02:53,15.08837873,8.62e-05,53.2172,288.6537,89.6504,270.4587,8.0191e-05,9.89e-06,0.0,0 STARLINK-4155,1 53036U 22076BC  23154.58533598  .00000989  00000-0  80191-4 0  9994,2 53036  53.2172 288.6537 0000862  89.6504 270.4587 15.08837873 50633,6917.887,95.438,540.348,539.156,0.0
53036.0,STARLINK-4155,PAYLOAD,2023-06-03 15:38:16,15.08840318,8.8e-05,53.2173,288.3564,86.2267,273.8825,7.4638e-05,9e-06,0.0,0 STARLINK-4155,1 53036U 22076BC  23154.65157485  .00000900  00000-0  74638-4 0  9991,2 53036  53.2173 288.3564 0000880  86.2267 273.8825 15.08840318 51103,6917.879,95.438,540.353,539.136,0.0
53036.0,STARLINK-4155,PAYLOAD,2023-06-04 13:53:40,15.08836508,9.1e-05,53.2175,284.1932,83.1898,276.9197,0.0001192,1.61e-05,0.0,0 STARLINK-4155,1 53036U 22076BC  23155.57893772  .00001610  00000-0  11920-3 0  9992,2 53036  53.2175 284.1932 0000910  83.1898 276.9197 15.08836508 50783,6917.891,95.438,540.386,539.127,0.0
53036.0,STARLINK-4155,PAYLOAD,2023-06-04 15:29:03,15.08840291,8.97e-05,53.2172,283.8966,78.8048,281.3045,0.00015441,2.171e-05,0.0,0 STARLINK-4155,1 53036U 22076BC  23155.64517474  .00002171  00000-0  15441-3 0  9997,2 53036  53.2172 283.8966 0000897  78.8048 281.3045 15.08840291 50792,6917.879,95.438,540.365,539.124,0.0
53036.0,STARLINK-4155,PAYLOAD,2023-06-05 01:01:22,15.08839176,8.38e-05,53.2171,282.1139,81.2146,278.8941,9.1446e-05,1.168e-05,0.0,0 STARLINK-4155,1 53036U 22076BC  23156.04261727  .00001168  00000-0  91446-4 0  9994,2 53036  53.2171 282.1139 0000838  81.2146 278.8941 15.08839176 51312,6917.883,95.438,540.328,539.168,0.0
53036.0,STARLINK-4155,PAYLOAD,2023-06-05 13:44:26,15.08869765,6.43e-05,53.2165,279.7346,73.5696,286.5366,-0.00025704,-4.379e-05,0.0,0 STARLINK-4155,1 53036U 22076BC  23156.57252753 -.00004379  00000-0 -25704-3 0  9993,2 53036  53.2165 279.7346 0000643  73.5696 286.5366 15.08869765 50936,6917.789,95.436,540.099,539.21,0.0
53036.0,STARLINK-4155,PAYLOAD,2023-06-05 15:19:49,15.08847052,8.41e-05,53.2164,279.4381,77.0247,283.0839,0.00010117,1.323e-05,0.0,0 STARLINK-4155,1 53036U 22076BC  23156.63877127  .00001323  00000-0  10117-3 0  9994,2 53036  53.2164 279.4381 0000841  77.0247 283.0839 15.08847052 51407,6917.859,95.437,540.306,539.142,0.0
53036.0,STARLINK-4155,PAYLOAD,2023-06-06 08:49:05,15.08836563,9.78e-05,53.2176,276.1652,80.2992,279.811,-3.8877e-05,-9.06e-06,0.0,0 STARLINK-4155,1 53036U 22076BC  23157.36742199 -.00000906  00000-0 -38877-4 0  9997,2 53036  53.2176 276.1652 0000978  80.2992 279.8110 15.08836563 51511,6917.891,95.438,540.432,539.079,0.0
53036.0,STARLINK-4155,PAYLOAD,2023-06-06 11:59:51,15.08839009,9.92e-05,53.2176,275.5702,83.875,276.2355,-2.0323e-05,-6.11e-06,0.0,0 STARLINK-4155,1 53036U 22076BC  23157.49989977 -.00000611  00000-0 -20323-4 0  9998,2 53036  53.2176 275.5702 0000992  83.8750 276.2355 15.08839009 51078,6917.883,95.438,540.435,539.062,0.0
53036.0,STARLINK-4155,PAYLOAD,2023-06-06 15:10:37,15.08840614,9.93e-05,53.2178,274.9758,81.9761,278.1344,-6.2897e-06,-3.88e-06,0.0,0 STARLINK-4155,1 53036U 22076BC  23157.63237824 -.00000388  00000-0 -62897-5 0  9995,2 53036  53.2178 274.9758 0000993  81.9761 278.1344 15.08840614 51091,6917.879,95.438,540.43,539.057,0.0
53036.0,STARLINK-4155,PAYLOAD,2023-06-07 08:39:52,15.08833657,8.53e-05,53.2175,271.7051,85.6464,274.4625,-1.9371e-05,-5.96e-06,0.0,0 STARLINK-4155,1 53036U 22076BC  23158.36102392 -.00000596  00000-0 -19371-4 0  9996,2 53036  53.2175 271.7051 0000853  85.6464 274.4625 15.08833657 51208,6917.9,95.438,540.355,539.175,0.0
53036.0,STARLINK-4155,PAYLOAD,2023-06-07 16:36:47,15.0884316,7.62e-05,53.217,270.2176,79.4898,280.618,3.9121e-06,-2.25e-06,0.0,0 STARLINK-4155,1 53036U 22076BC  23158.69221768 -.00000225  00000-0  39121-5 0  9995,2 53036  53.2170 270.2176 0000762  79.4898 280.6180 15.08843160 51717,6917.871,95.437,540.263,539.209,0.0
53036.0,STARLINK-4155,PAYLOAD,2023-06-08 11:41:25,15.08836526,8.59e-05,53.2168,266.649,85.0007,275.1083,0.0001217,1.65e-05,0.0,0 STARLINK-4155,1 53036U 22076BC  23159.48710017  .00001650  00000-0  12170-3 0  9998,2 53036  53.2168 266.6490 0000859  85.0007 275.1083 15.08836526 51375,6917.891,95.438,540.35,539.162,0.0
53036.0,STARLINK-4155,PAYLOAD,2023-06-08 13:16:48,15.08841232,6.6e-05,53.2165,266.3518,58.3451,301.7606,9.5916e-05,1.239e-05,0.0,0 STARLINK-4155,1 53036U 22076BC  23159.55333820  .00001239  00000-0  95916-4 0  9992,2 53036  53.2165 266.3518 0000660  58.3451 301.7606 15.08841232 51384,6917.877,95.437,540.198,539.285,0.0
